*******************************************************************************
JPL/HORIZONS                 212 Medea (A880 CA)           2020-Jun-22 08:40:36
Rec #:     212 (+COV) Soln.date: 2020-May-20_01:01:07   # obs: 2694 (1880-2020)
 
IAU76/J2000 helio. ecliptic osc. elements (au, days, deg., period=Julian yrs):
 
  EPOCH=  2454392.5 ! 2007-Oct-19.00 (TDB)         Residual RMS= .24059
   EC= .1116713740732889   QR= 2.765962543432652   TP= 2453417.1450687982
   OM= 313.6538071786434   W=  99.61668474569849   IN= 4.26498554271433
   A= 3.113670394835221    MA= 174.9676673403119   ADIST= 3.46137824623779
   PER= 5.49436            N= .17938871            ANGMOM= .030164269
   DAN= 3.13329            DDN= 3.01853            L= 53.296696
   B= 4.2049429            MOID= 1.78095996        TP= 2005-Feb-15.6450687982
 
Asteroid physical parameters (km, seconds, rotational period in hours):
   GM= n.a.                RAD= 68.06              ROTPER= 10.283
   H= 8.3                  G= .150                 B-V= .704
                           ALBEDO= .0465           STYP= DCX:
 
ASTEROID comments: 
1: soln ref.= JPL#79, OCC=0
2: source=ORB
*******************************************************************************
 
 
*******************************************************************************
Ephemeris / WWW_USER Mon Jun 22 08:40:36 2020 Pasadena, USA      / Horizons
*******************************************************************************
Target body name: 212 Medea (A880 CA)             {source: JPL#79}
Center body name: Solar System Barycenter (0)     {source: DE431}
Center-site name: BODY CENTER
*******************************************************************************
Start time      : A.D. 1969-Jun-28 00:00:00.0000 TDB
Stop  time      : A.D. 2071-May-04 00:00:00.0000 TDB
Step-size       : 7200 minutes
*******************************************************************************
Center geodetic : 0.00000000,0.00000000,0.0000000 {E-lon(deg),Lat(deg),Alt(km)}
Center cylindric: 0.00000000,0.00000000,0.0000000 {E-lon(deg),Dxy(km),Dz(km)}
Center radii    : (undefined)                                                  
Small perturbers: Yes                             {source: SB431-N16}
Output units    : AU-D
Output type     : GEOMETRIC cartesian states
Output format   : 2 (position and velocity)
Reference frame : Ecliptic of J2000.0
*******************************************************************************
Initial IAU76/J2000 heliocentric ecliptic osculating elements (au, days, deg.):
  EPOCH=  2454392.5 ! 2007-Oct-19.00 (TDB)         Residual RMS= .24059        
   EC= .1116713740732889   QR= 2.765962543432652   TP= 2453417.1450687982      
   OM= 313.6538071786434   W=  99.61668474569849   IN= 4.26498554271433        
  Equivalent ICRF heliocentric equatorial cartesian coordinates (au, au/d):
   X=-2.253073376828714E+00  Y=-2.296188336893171E+00  Z=-1.274680163536126E+00
  VX= 6.549168406953880E-03 VY=-5.301396895502238E-03 VZ=-2.236100180753083E-03
Asteroid physical parameters (km, seconds, rotational period in hours):        
   GM= n.a.                RAD= 68.06              ROTPER= 10.283              
   H= 8.3                  G= .150                 B-V= .704                   
                           ALBEDO= .0465           STYP= DCX:                  
*******************************************************************************
            JDTDB,            Calendar Date (TDB),        delta-T,                      X,                      Y,                      Z,                     VX,                     VY,                     VZ,
******************************************************************************************************************************************************************************************************************
$$SOE
2442500.500000000, A.D. 1975-Mar-29 00:00:00.0000,      46.185645, -1.243012151596024E+00, -3.225071576645884E+00, -2.346139891962528E-01,  8.180316441206406E-03, -2.972211663370394E-03,  2.826682106342965E-04,
2442505.500000000, A.D. 1975-Apr-03 00:00:00.0000,      46.185654, -1.202001188828642E+00, -3.239644808423595E+00, -2.331797747592455E-01,  8.223831121162531E-03, -2.856978427963560E-03,  2.910102113683768E-04,
2442510.500000000, A.D. 1975-Apr-08 00:00:00.0000,      46.185653, -1.160776222110172E+00, -3.253640345198757E+00, -2.317039614935581E-01,  8.265916764596518E-03, -2.741135758328281E-03,  2.993075653566685E-04,
2442515.500000000, A.D. 1975-Apr-13 00:00:00.0000,      46.185641, -1.119344415505588E+00, -3.267055171286811E+00, -2.301867752880477E-01,  8.306565813195966E-03, -2.624696258641522E-03,  3.075592097606505E-04,
2442520.500000000, A.D. 1975-Apr-18 00:00:00.0000,      46.185616, -1.077712970952664E+00, -3.279886334171251E+00, -2.286284473578301E-01,  8.345770676008347E-03, -2.507672592754843E-03,  3.157640768645208E-04,
2442525.500000000, A.D. 1975-Apr-23 00:00:00.0000,      46.185577, -1.035889128427293E+00, -3.292130944814159E+00, -2.270292142694219E-01,  8.383523728605718E-03, -2.390077489064982E-03,  3.239210937743819E-04,
2442530.500000000, A.D. 1975-Apr-28 00:00:00.0000,      46.185526, -9.938801661128005E-01, -3.303786177991162E+00, -2.253893179673644E-01,  8.419817312319545E-03, -2.271923745408412E-03,  3.320291821264429E-04,
2442535.500000000, A.D. 1975-May-03 00:00:00.0000,      46.185465, -9.516934005728369E-01, -3.314849272650742E+00, -2.237090058022752E-01,  8.454643733605955E-03, -2.153224233887205E-03,  3.400872578076185E-04,
2442540.500000000, A.D. 1975-May-08 00:00:00.0000,      46.185395, -9.093361869269321E-01, -3.325317532297563E+00, -2.219885305602906E-01,  8.487995263591241E-03, -2.033991905683811E-03,  3.480942306765839E-04,
2442545.500000000, A.D. 1975-May-13 00:00:00.0000,      46.185315, -8.668159190278835E-01, -3.335188325400191E+00, -2.202281504939380E-01,  8.519864137807941E-03, -1.914239796019734E-03,  3.560490042672147E-04,
2442550.500000000, A.D. 1975-May-18 00:00:00.0000,      46.185226, -8.241400296402451E-01, -3.344459085824106E+00, -2.184281293545230E-01,  8.550242555990281E-03, -1.793981029311904E-03,  3.639504754837367E-04,
2442555.500000000, A.D. 1975-May-23 00:00:00.0000,      46.185126, -7.813159906197401E-01, -3.353127313290840E+00, -2.165887364260345E-01,  8.579122681914370E-03, -1.673228824448105E-03,  3.717975342993514E-04,
2442560.500000000, A.D. 1975-May-28 00:00:00.0000,      46.185017, -7.383513130933245E-01, -3.361190573863603E+00, -2.147102465605261E-01,  8.606496643302229E-03, -1.551996500097508E-03,  3.795890634673396E-04,
2442565.500000000, A.D. 1975-Jun-02 00:00:00.0000,      46.184902, -6.952535476394976E-01, -3.368646500459482E+00, -2.127929402149123E-01,  8.632356531823603E-03, -1.430297480027186E-03,  3.873239382458110E-04,
2442570.500000000, A.D. 1975-Jun-07 00:00:00.0000,      46.184782, -6.520302844683227E-01, -3.375492793388215E+00, -2.108371034891034E-01,  8.656694403214463E-03, -1.308145298417935E-03,  3.950010261358929E-04,
2442575.500000000, A.D. 1975-Jun-12 00:00:00.0000,      46.184657, -6.086891536005083E-01, -3.381727220917556E+00, -2.088430281654195E-01,  8.679502277536073E-03, -1.185553605181619E-03,  4.026191866313243E-04,
2442580.500000000, A.D. 1975-Jun-17 00:00:00.0000,      46.184527, -5.652378250448099E-01, -3.387347619865253E+00, -2.068110117492367E-01,  8.700772139592437E-03, -1.062536171293219E-03,  4.101772709760582E-04,
2442585.500000000, A.D. 1975-Jun-22 00:00:00.0000,      46.184391, -5.216840089729207E-01, -3.392351896217764E+00, -2.047413575108320E-01,  8.720495939515724E-03, -9.391068941659548E-04,  4.176741219261278E-04,
2442590.500000000, A.D. 1975-Jun-27 00:00:00.0000,      46.184252, -4.780354558910394E-01, -3.396738025776044E+00, -2.026343745284138E-01,  8.738665593505512E-03, -8.152798030981841E-04,  4.251085735145476E-04,
2442595.500000000, A.D. 1975-Jul-02 00:00:00.0000,      46.184112, -4.342999568074140E-01, -3.400504054828747E+00, -2.004903777323120E-01,  8.755272984696590E-03, -6.910690647972858E-04,  4.324794508220091E-04,
2442600.500000000, A.D. 1975-Jul-07 00:00:00.0000,      46.183973, -3.904853433952759E-01, -3.403648100853200E+00, -1.983096879502901E-01,  8.770309964132016E-03, -5.664889889583347E-04,  4.397855697590731E-04,
2442605.500000000, A.D. 1975-Jul-12 00:00:00.0000,      46.183835, -3.465994881506354E-01, -3.406168353244325E+00, -1.960926319539096E-01,  8.783768351848980E-03, -4.415540338546426E-04,  4.470257368641982E-04,
2442610.500000000, A.D. 1975-Jul-17 00:00:00.0000,      46.183696, -3.026503045443047E-01, -3.408063074071488E+00, -1.938395425058613E-01,  8.795639938108364E-03, -3.162788119210678E-04,  4.541987491168016E-04,
2442615.500000000, A.D. 1975-Jul-22 00:00:00.0000,      46.183559, -2.586457471673346E-01, -3.409330598863249E+00, -1.915507584082048E-01,  8.805916484805399E-03, -1.906780953255115E-04,  4.613033937611463E-04,
2442620.500000000, A.D. 1975-Jul-27 00:00:00.0000,      46.183424, -2.145938118688874E-01, -3.409969337419903E+00, -1.892266245514748E-01,  8.814589727089268E-03, -6.476682151792156E-05,  4.683384481347000E-04,
2442625.500000000, A.D. 1975-Aug-01 00:00:00.0000,      46.183294, -1.705025358853799E-01, -3.409977774653694E+00, -1.868674919646525E-01,  8.821651375251904E-03,  6.143990125484325E-05,  4.753026794891080E-04,
2442630.500000000, A.D. 1975-Aug-06 00:00:00.0000,      46.183171, -1.263799979593869E-01, -3.409354471456698E+00, -1.844737178660918E-01,  8.827093116929769E-03,  1.879267883509903E-04,  4.821948447882934E-04,
2442635.500000000, A.D. 1975-Aug-11 00:00:00.0000,      46.183054, -8.223431844683168E-02, -3.408098065597379E+00, -1.820456657155238E-01,  8.830906619571310E-03,  3.146783728477273E-04,  4.890136904760609E-04,
